NORAD_CAT_ID,OBJECT_NAME,OBJECT_TYPE,EPOCH,MEAN_MOTION,ECCENTRICITY,INCLINATION,RA_OF_ASC_NODE,ARG_OF_PERICENTER,MEAN_ANOMALY,BSTAR,MEAN_MOTION_DOT,MEAN_MOTION_DDOT,TLE_LINE0,TLE_LINE1,TLE_LINE2,SEMIMAJOR_AXIS,PERIOD,APOGEE,PERIGEE,DECAYED
54073.0,STARLINK-5146,PAYLOAD,2022-12-31 11:28:47,15.08840455,0.0001355,53.2172,165.74900000000005,81.0787,279.0358,0.00010051,1.312e-05,0.0,0 STARLINK-5146,1 54073U 22136Y   22365.47832407  .00001312  00000-0  10051-3 0  9993,2 54073  53.2172 165.7490 0001355  81.0787 279.0358 15.08840455 11150,6917.879,95.438,540.681,538.807,0.0
54073.0,STARLINK-5146,PAYLOAD,2022-12-31 17:50:19,15.0883704,0.0001315,53.2172,164.5596,79.9606,280.1535,0.00013676,1.889e-05,0.0,0 STARLINK-5146,1 54073U 22136Y   22365.74328538  .00001889  00000-0  13676-3 0  9993,2 54073  53.2172 164.5596 0001315  79.9606 280.1535 15.08837040 11196,6917.889,95.438,540.664,538.845,0.0
54073.0,STARLINK-5146,PAYLOAD,2023-01-01 11:19:34,15.08839643,0.000133,53.2169,161.2882,80.5979,279.5164,-3.0739e-05,-7.77e-06,0.0,0 STARLINK-5146,1 54073U 22136Y   23001.47192771 -.00000777  00000-0 -30739-4 0  9996,2 54073  53.2169 161.2882 0001330  80.5979 279.5164 15.08839643 11306,6917.880999999999,95.438,540.6669999999998,538.826,0.0
54073.0,STARLINK-5146,PAYLOAD,2023-01-01 17:41:06,15.08842875,0.0001349,53.217,160.099,79.4226,280.6918,2.9738e-06,-2.41e-06,0.0,0 STARLINK-5146,1 54073U 22136Y   23001.73688428 -.00000241  00000-0  29738-5 0  9997,2 54073  53.2170 160.0990 0001349  79.4226 280.6918 15.08842875 11342,6917.871999999999,95.437,540.67,538.803,0.0
54073.0,STARLINK-5146,PAYLOAD,2023-01-02 03:13:26,15.08834596,0.0001237,53.2168,158.3153,76.4284,283.6845,-9.5786e-05,-1.812e-05,0.0,0 STARLINK-5146,1 54073U 22136Y   23002.13433278 -.00001812  00000-0 -95786-4 0  9994,2 54073  53.2168 158.3153 0001237  76.4284 283.6845 15.08834596 11889,6917.897,95.438,540.618,538.906,0.0
54073.0,STARLINK-5146,PAYLOAD,2023-01-02 12:45:45,15.08835793,0.000129,53.2173,156.5307,76.4493,283.6643,-4.772e-05,-1.047e-05,0.0,0 STARLINK-5146,1 54073U 22136Y   23002.53177150 -.00001047  00000-0 -47720-4 0  9997,2 54073  53.2173 156.5307 0001290  76.4493 283.6643 15.08835793 11467,6917.893,95.438,540.651,538.866,0.0
54073.0,STARLINK-5146,PAYLOAD,2023-01-02 20:42:40,15.0883767,0.0001334,53.2171,155.0441,76.5339,283.5802,1.9289e-05,1.9e-07,0.0,0 STARLINK-5146,1 54073U 22136Y   23002.86296894  .00000019  00000-0  19289-4 0  9995,2 54073  53.2171 155.0441 0001334  76.5339 283.5802 15.08837670 11997,6917.888000000001,95.438,540.675,538.83,0.0
54073.0,STARLINK-5146,PAYLOAD,2023-01-03 11:01:08,15.08838995,0.0001266,53.217,152.3684,75.2666,284.8467,6.5301e-05,7.52e-06,0.0,0 STARLINK-5146,1 54073U 22136Y   23003.45912693  .00000752  00000-0  65301-4 0  9993,2 54073  53.2170 152.3684 0001266  75.2666 284.8467 15.08838995 11608,6917.8830000000025,95.438,540.624,538.873,0.0
54073.0,STARLINK-5146,PAYLOAD,2023-01-04 15:38:04,15.08840788,0.0001409,53.2171,147.0155,75.2983,284.8165,0.0001102,1.466e-05,0.0,0 STARLINK-5146,1 54073U 22136Y   23004.65144548  .00001466  00000-0  11020-3 0  9993,2 54073  53.2171 147.0155 0001409  75.2983 284.8165 15.08840788 12265,6917.878000000002,95.438,540.7180000000002,538.768,0.0
54073.0,STARLINK-5146,PAYLOAD,2023-01-05 09:07:18,15.08851652,0.0001349,53.2174,143.7449,73.4531,286.661,9.2767e-05,1.189e-05,0.0,0 STARLINK-5146,1 54073U 22136Y   23005.38007571  .00001189  00000-0  92767-4 0  9998,2 54073  53.2174 143.7449 0001349  73.4531 286.6610 15.08851652 12378,6917.845,95.437,540.643,538.7769999999998,0.0
54073.0,STARLINK-5146,PAYLOAD,2023-01-05 15:28:51,15.08848392,0.0001284,53.2178,142.5551,74.518,285.5954,9.2957e-05,1.192e-05,0.0,0 STARLINK-5146,1 54073U 22136Y   23005.64503589  .00001192  00000-0  92957-4 0  9992,2 54073  53.2178 142.5551 0001284  74.5180 285.5954 15.08848392 11930,6917.855,95.437,540.6080000000002,538.831,0.0
54073.0,STARLINK-5146,PAYLOAD,2023-01-06 08:58:06,15.08842861,0.000136,53.2163,139.2836,65.4103,294.7031,-0.00016295,-2.881e-05,0.0,0 STARLINK-5146,1 54073U 22136Y   23006.37368832 -.00002881  00000-0 -16295-3 0  9991,2 54073  53.2163 139.2836 0001360  65.4103 294.7031 15.08842861 12521,6917.871999999999,95.437,540.677,538.7959999999998,0.0
54073.0,STARLINK-5146,PAYLOAD,2023-01-06 18:30:26,15.08834341,0.0001422,53.2188,137.5014,66.387,293.7271,-0.00020412,-3.535e-05,0.0,0 STARLINK-5146,1 54073U 22136Y   23006.77113536 -.00003535  00000-0 -20412-3 0  9997,2 54073  53.2188 137.5014 0001422  66.3870 293.7271 15.08834341 12582,6917.898,95.438,540.746,538.779,0.0
54073.0,STARLINK-5146,PAYLOAD,2023-01-07 15:10:26,15.08836448,0.0001425,53.2167,133.6341,66.7377,293.3765,-4.2232e-05,-9.6e-06,0.0,0 STARLINK-5146,1 54073U 22136Y   23007.63225096 -.00000960  00000-0 -42232-4 0  9992,2 54073  53.2167 133.6341 0001425  66.7377 293.3765 15.08836448 12717,6917.891,95.438,540.742,538.77,0.0
54073.0,STARLINK-5146,PAYLOAD,2023-01-08 08:39:41,15.08825562,0.0001544,53.2163,130.3636,68.5181,291.5976,0.00016272,2.302e-05,0.0,0 STARLINK-5146,1 54073U 22136Y   23008.36089416  .00002302  00000-0  16272-3 0  9991,2 54073  53.2163 130.3636 0001544  68.5181 291.5976 15.08825562 12347,6917.925,95.438,540.8580000000002,538.721,0.0
54073.0,STARLINK-5146,PAYLOAD,2023-01-09 00:33:32,15.08835968,0.000133,53.2171,127.3906,71.1649,288.9487,0.0001095999999999,1.457e-05,0.0,0 STARLINK-5146,1 54073U 22136Y   23009.02329303  .00001457  00000-0  10960-3 0  9995,2 54073  53.2171 127.3906 0001330  71.1649 288.9487 15.08835968 12926,6917.893,95.438,540.678,538.8380000000002,0.0
54073.0,STARLINK-5146,PAYLOAD,2023-01-09 14:52:00,15.08840924,0.0001398,53.216,124.7149,66.8563,293.2576,9.5388e-05,1.231e-05,0.0,0 STARLINK-5146,1 54073U 22136Y   23009.61945167  .00001231  00000-0  95388-4 0  9990,2 54073  53.2160 124.7149 0001398  66.8563 293.2576 15.08840924 12537,6917.8780000000015,95.437,540.71,538.775,0.0
54073.0,STARLINK-5146,PAYLOAD,2023-01-09 16:27:23,15.0884347,0.0001436,53.2159,124.417,69.7048,290.4098,0.00011324,1.515e-05,0.0,0 STARLINK-5146,1 54073U 22136Y   23009.68568946  .00001515  00000-0  11324-3 0  9995,2 54073  53.2159 124.4170 0001436  69.7048 290.4098 15.08843470 12547,6917.87,95.437,540.7280000000002,538.741,0.0
54073.0,STARLINK-5146,PAYLOAD,2023-01-10 08:21:15,15.08838515,0.0001519,53.2166,121.4427,64.7835,295.3314,3.2905e-05,2.36e-06,0.0,0 STARLINK-5146,1 54073U 22136Y   23010.34809500  .00000236  00000-0  32905-4 0  9992,2 54073  53.2166 121.4427 0001519  64.7835 295.3314 15.08838515 13122,6917.885,95.438,540.8009999999998,538.6990000000002,0.0
54073.0,STARLINK-5146,PAYLOAD,2023-01-10 13:07:24,15.08842254,0.0001411,53.2171,120.5504,57.9503,302.1626,3.4844e-05,2.67e-06,0.0,0 STARLINK-5146,1 54073U 22136Y   23010.54681233  .00000267  00000-0  34844-4 0  9993,2 54073  53.2171 120.5504 0001411  57.9503 302.1626 15.08842254 12678,6917.873000000001,95.437,540.715,538.762,0.0
54073.0,STARLINK-5146,PAYLOAD,2023-01-10 16:18:11,15.08839811,0.0001469,53.2176,119.9558,59.8823,300.2314,9.9207e-06,-1.3e-06,0.0,0 STARLINK-5146,1 54073U 22136Y   23010.67929454 -.00000130  00000-0  99207-5 0  9992,2 54073  53.2176 119.9558 0001469  59.8823 300.2314 15.08839811 12693,6917.880999999999,95.438,540.762,538.73,0.0
54073.0,STARLINK-5146,PAYLOAD,2023-01-11 12:58:10,15.0887352,0.0001699,53.2172,116.0898,52.8082,307.3065,-0.00025851,-4.404e-05,0.0,0 STARLINK-5146,1 54073U 22136Y   23011.54040174 -.00004404  00000-0 -25851-3 0  9993,2 54073  53.2172 116.0898 0001699  52.8082 307.3065 15.08873520 13304,6917.778,95.435,540.818,538.4680000000002,0.0
54073.0,STARLINK-5146,PAYLOAD,2023-01-11 16:08:57,15.08848338,0.0001478,53.217,115.4958,59.2741,300.8397,4.4558e-05,4.21e-06,0.0,0 STARLINK-5146,1 54073U 22136Y   23011.67288586  .00000421  00000-0  44558-4 0  9997,2 54073  53.2170 115.4958 0001478  59.2741 300.8397 15.08848338 13327,6917.855,95.437,540.742,538.697,0.0
54073.0,STARLINK-5146,PAYLOAD,2023-01-12 00:05:54,15.08824631,0.0001385,53.218,114.0087,61.2463,298.8669,-9.9549e-05,-1.871e-05,0.0,0 STARLINK-5146,1 54073U 22136Y   23012.00410628 -.00001871  00000-0 -99549-4 0  9991,2 54073  53.2180 114.0087 0001385  61.2463 298.8669 15.08824631 13370,6917.927,95.439,540.75,538.8340000000002,0.0
54073.0,STARLINK-5146,PAYLOAD,2023-01-12 15:59:45,15.08840821,0.0001531999999999,53.2172,111.0349,63.4818,296.6331,3.7523e-05,3.09e-06,0.0,0 STARLINK-5146,1 54073U 22136Y   23012.66649343  .00000309  00000-0  37523-4 0  9998,2 54073  53.2172 111.0349 0001532  63.4818 296.6331 15.08840821 13473,6917.8780000000015,95.438,540.803,538.683,0.0
54073.0,STARLINK-5146,PAYLOAD,2023-01-12 23:56:42,15.08819159,0.0002183,53.2173,109.5492,71.1513,288.9716,-0.00012979,-2.352e-05,0.0,0 STARLINK-5146,1 54073U 22136Y   23012.99771669 -.00002352  00000-0 -12979-3 0  9990,2 54073  53.2173 109.5492 0002183  71.1513 288.9716 15.08819159 13523,6917.944,95.439,541.319,538.299,0.0
54073.0,STARLINK-5146,PAYLOAD,2023-01-13 12:39:47,15.08826722,0.0001438,53.2181,107.1679,79.6168,280.4986,-0.00013299,-2.403e-05,0.0,0 STARLINK-5146,1 54073U 22136Y   23013.52763558 -.00002403  00000-0 -13299-3 0  9991,2 54073  53.2181 107.1679 0001438  79.6168 280.4986 15.08826722 13603,6917.920999999999,95.438,540.781,538.7909999999999,0.0
54073.0,STARLINK-5146,PAYLOAD,2023-01-14 06:09:01,15.08835909,0.0001345,53.2161,103.8992,62.83,297.283,5.9915e-05,6.66e-06,0.0,0 STARLINK-5146,1 54073U 22136Y   23014.25627025  .00000666  00000-0  59915-4 0  9993,2 54073  53.2161 103.8992 0001345  62.8300 297.2830 15.08835909 13714,6917.893,95.438,540.688,538.827,0.0
54073.0,STARLINK-5146,PAYLOAD,2023-01-14 12:30:33,15.08852289,0.0001385,53.2172,102.7091,72.7203,287.3941,0.00019181,2.767e-05,0.0,0 STARLINK-5146,1 54073U 22136Y   23014.52121640  .00002767  00000-0  19181-3 0  9999,2 54073  53.2172 102.7091 0001385  72.7203 287.3941 15.08852289 13757,6917.843000000001,95.437,540.6659999999999,538.75,0.0
